{"type": "FeatureCollection", "features": [ {"type": "Feature", "properties": {"norad_id": 30272, "name": "FENGYUN 1C DEB", "group": "fengyun-1c-debris", "lat": 30.44307781997332, "lon": -110.88066219996128, "alt_km": 829.9096963644442, "timestamp": "2025-12-22T04:03:39.444180+00:00", "meta": {"OBJECT_NAME": "FENGYUN 1C DEB", "OBJECT_ID": "1999-025YH", "EPOCH": "2025-12-21T03:36:03.389472", "MEAN_MOTION": 14.14745029, "ECCENTRICITY": 0.00504552, "INCLINATION": 98.9005, "RA_OF_ASC_NODE": 62.8192, "ARG_OF_PERICENTER": 80.2094, "MEAN_ANOMALY": 280.4771, "EPHEMERIS_TYPE": 0, "CLASSIFICATION_TYPE": "U", "NORAD_CAT_ID": 30272, "ELEMENT_SET_NO": 999, "REV_AT_EPOCH": 96975, "BSTAR": 0.00082269913, "MEAN_MOTION_DOT": 1.56e-05, "MEAN_MOTION_DDOT": 0}, "tle": {"line1": "1 30272U 99025YH  25355.15003923  .00001560  00000+0  82270-3 0  9995", "line2": "2 30272  98.9005  62.8192 0050455  80.2094 280.4771 14.14745029969759"}}, "geometry": {"type": "Point", "coordinates": [-110.88066219996128, 30.44307781997332]}}, {"type": "Feature", "properties": {"norad_id": 30273, "name": "FENGYUN 1C DEB", "group": "fengyun-1c-debris", "lat": 73.69350868854511, "lon": -21.68072974018598, "alt_km": 914.1228436321826, "timestamp": "2025-12-22T04:03:39.444191+00:00", "meta": {"OBJECT_NAME": "FENGYUN 1C DEB", "OBJECT_ID": "1999-025YJ", "EPOCH": "2025-12-21T13:00:46.423872", "MEAN_MOTION": 14.0267093, "ECCENTRICITY": 0.00605208, "INCLINATION": 98.8395, "RA_OF_ASC_NODE": 9.8465, "ARG_OF_PERICENTER": 224.6782, "MEAN_ANOMALY": 287.6012, "EPHEMERIS_TYPE": 0, "CLASSIFICATION_TYPE": "U", "NORAD_CAT_ID": 30273, "ELEMENT_SET_NO": 999, "REV_AT_EPOCH": 96652, "BSTAR": 0.0002582409, "MEAN_MOTION_DOT": 3.62e-06, "MEAN_MOTION_DDOT": 0}, "tle": {"line1": "1 30273U 99025YJ  25355.54220398  .00000362  00000+0  25824-3 0  9997", "line2": "2 30273  98.8395   9.8465 0060520 224.6782 287.6012 14.02670930966521"}}, "geometry": {"type": "Point", "coordinates": [-21.68072974018598, 73.69350868854511]}}, {"type": "Feature", "properties": {"norad_id": 30274, "name": "FENGYUN 1C DEB", "group": "fengyun-1c-debris", "lat": 55.12468864171187, "lon": -40.55512262043262, "alt_km": 713.2947796789949, "timestamp": "2025-12-22T04:03:39.444201+00:00", "meta": {"OBJECT_NAME": "FENGYUN 1C DEB", "OBJECT_ID": "1999-025YK", "EPOCH": "2025-12-21T14:51:13.226112", "MEAN_MOTION": 14.51784538, "ECCENTRICITY": 0.0004787, "INCLINATION": 99.3019, "RA_OF_ASC_NODE": 125.2353, "ARG_OF_PERICENTER": 194.3415, "MEAN_ANOMALY": 294.9233, "EPHEMERIS_TYPE": 0, "CLASSIFICATION_TYPE": "U", "NORAD_CAT_ID": 30274, "ELEMENT_SET_NO": 999, "REV_AT_EPOCH": 98339, "BSTAR": 0.0019432, "MEAN_MOTION_DOT": 7.77e-05, "MEAN_MOTION_DDOT": 0}, "tle": {"line1": "1 30274U 99025YK  25355.61890308  .00007770  00000+0  19432-2 0  9997", "line2": "2 30274  99.3019 125.2353 0004787 194.3415 294.9233 14.51784538983393"}}, "geometry": {"type": "Point", "coordinates": [-40.55512262043262, 55.12468864171187]}}, {"type": "Feature", "properties": {"norad_id": 30275, "name": "FENGYUN 1C DEB", "group": "fengyun-1c-debris", "lat": -39.134699220532134, "lon": -106.51447309716077, "alt_km": 732.9694794411753, "timestamp": "2025-12-22T04:03:39.444211+00:00", "meta": {"OBJECT_NAME": "FENGYUN 1C DEB", "OBJECT_ID": "1999-025YL", "EPOCH": "2025-12-21T19:18:42.199776", "MEAN_MOTION": 14.45415754, "ECCENTRICITY": 0.0039795, "INCLINATION": 98.6284, "RA_OF_ASC_NODE": 80.2122, "ARG_OF_PERICENTER": 160.3659, "MEAN_ANOMALY": 322.9638, "EPHEMERIS_TYPE": 0, "CLASSIFICATION_TYPE": "U", "NORAD_CAT_ID": 30275, "ELEMENT_SET_NO": 999, "REV_AT_EPOCH": 98215, "BSTAR": 0.001739, "MEAN_MOTION_DOT": 6.138e-05, "MEAN_MOTION_DDOT": 0}, "tle": {"line1": "1 30275U 99025YL  25355.80465509  .00006138  00000+0  17390-2 0  9998", "line2": "2 30275  98.6284  80.2122 0039795 160.3659 322.9638 14.45415754982152"}}, "geometry": {"type": "Point", "coordinates": [-106.51447309716077, -39.134699220532134]}}, {"type": "Feature", "properties": {"norad_id": 30276, "name": "FENGYUN 1C DEB", "group": "fengyun-1c-debris", "lat": -77.0943690419229, "lon": -155.03782151427217, "alt_km": 825.5824108725383, "timestamp": "2025-12-22T04:03:39.444222+00:00", "meta": {"OBJECT_NAME": "FENGYUN 1C DEB", "OBJECT_ID": "1999-025YM", "EPOCH": "2025-12-20T03:43:42.086208", "MEAN_MOTION": 14.2706619, "ECCENTRICITY": 0.00243101, "INCLINATION": 98.8593, "RA_OF_ASC_NODE": 65.8204, "ARG_OF_PERICENTER": 70.0933, "MEAN_ANOMALY": 290.2863, "EPHEMERIS_TYPE": 0, "CLASSIFICATION_TYPE": "U", "NORAD_CAT_ID": 30276, "ELEMENT_SET_NO": 999, "REV_AT_EPOCH": 97636, "BSTAR": 0.00084714463, "MEAN_MOTION_DOT": 2.025e-05, "MEAN_MOTION_DDOT": 0}, "tle": {"line1": "1 30276U 99025YM  25354.15534822  .00002025  00000+0  84714-3 0  9997", "line2": "2 30276  98.8593  65.8204 0024310  70.0933 290.2863 14.27066190976366"}}, "geometry": {"type": "Point", "coordinates": [-155.03782151427217, -77.0943690419229]}}, {"type": "Feature", "properties": {"norad_id": 30277, "name": "FENGYUN 1C DEB", "group": "fengyun-1c-debris", "lat": -54.48224350697648, "lon": -125.91994935902959, "alt_km": 843.6459932216758, "timestamp": "2025-12-22T04:03:39.444232+00:00", "meta": {"OBJECT_NAME": "FENGYUN 1C DEB", "OBJECT_ID": "1999-025YN", "EPOCH": "2025-12-19T16:13:27.575040", "MEAN_MOTION": 14.13611169, "ECCENTRICITY": 0.012406, "INCLINATION": 98.9729, "RA_OF_ASC_NODE": 64.3678, "ARG_OF_PERICENTER": 158.3816, "MEAN_ANOMALY": 354.7763, "EPHEMERIS_TYPE": 0, "CLASSIFICATION_TYPE": "U", "NORAD_CAT_ID": 30277, "ELEMENT_SET_NO": 999, "REV_AT_EPOCH": 96887, "BSTAR": 0.00090874, "MEAN_MOTION_DOT": 1.8e-05, "MEAN_MOTION_DDOT": 0}, "tle": {"line1": "1 30277U 99025YN  25353.67601360  .00001800  00000+0  90874-3 0  9990", "line2": "2 30277  98.9729  64.3678 0124060 158.3816 354.7763 14.13611169968870"}}, "geometry": {"type": "Point", "coordinates": [-125.91994935902959, -54.48224350697648]}}, {"type": "Feature", "properties": {"norad_id": 30279, "name": "FENGYUN 1C DEB", "group": "fengyun-1c-debris", "lat": 23.313315263086647, "lon": -72.72257778656717, "alt_km": 667.1963691811361, "timestamp": "2025-12-22T04:03:39.444253+00:00", "meta": {"OBJECT_NAME": "FENGYUN 1C DEB", "OBJECT_ID": "1999-025YQ", "EPOCH": "2025-12-21T18:05:57.658848", "MEAN_MOTION": 14.23134469, "ECCENTRICITY": 0.021982, "INCLINATION": 99.1512, "RA_OF_ASC_NODE": 290.8291, "ARG_OF_PERICENTER": 46.9957, "MEAN_ANOMALY": 12.3535, "EPHEMERIS_TYPE": 0, "CLASSIFICATION_TYPE": "U", "NORAD_CAT_ID": 30279, "ELEMENT_SET_NO": 999, "REV_AT_EPOCH": 97739, "BSTAR": 0.0006597, "MEAN_MOTION_DOT": 1.859e-05, "MEAN_MOTION_DDOT": 0}, "tle": {"line1": "1 30279U 99025YQ  25355.75413957  .00001859  00000+0  65970-3 0  9999", "line2": "2 30279  99.1512 290.8291 0219820  46.9957  12.3535 14.23134469977394"}}, "geometry": {"type": "Point", "coordinates": [-72.72257778656717, 23.313315263086647]}}, {"type": "Feature", "properties": {"norad_id": 30280, "name": "FENGYUN 1C DEB", "group": "fengyun-1c-debris", "lat": 33.44408329817347, "lon": -20.705244820128787, "alt_km": 897.7149275938054, "timestamp": "2025-12-22T04:03:39.444265+00:00", "meta": {"OBJECT_NAME": "FENGYUN 1C DEB", "OBJECT_ID": "1999-025YR", "EPOCH": "2025-12-21T13:03:50.728896", "MEAN_MOTION": 13.98332088, "ECCENTRICITY": 0.0080024, "INCLINATION": 98.7751, "RA_OF_ASC_NODE": 344.5524, "ARG_OF_PERICENTER": 304.9676, "MEAN_ANOMALY": 184.2442, "EPHEMERIS_TYPE": 0, "CLASSIFICATION_TYPE": "U", "NORAD_CAT_ID": 30280, "ELEMENT_SET_NO": 999, "REV_AT_EPOCH": 96529, "BSTAR": 6.0067e-05, "MEAN_MOTION_DOT": 4.6e-07, "MEAN_MOTION_DDOT": 0}, "tle": {"line1": "1 30280U 99025YR  25355.54433714  .00000046  00000+0  60067-4 0  9991", "line2": "2 30280  98.7751 344.5524 0080024 304.9676 184.2442 13.98332088965299"}}, "geometry": {"type": "Point", "coordinates": [-20.705244820128787, 33.44408329817347]}}, {"type": "Feature", "properties": {"norad_id": 30281, "name": "FENGYUN 1C DEB", "group": "fengyun-1c-debris", "lat": -52.38281245329444, "lon": -2.7249238165773253, "alt_km": 867.1227402639006, "timestamp": "2025-12-22T04:03:39.444276+00:00", "meta": {"OBJECT_NAME": "FENGYUN 1C DEB", "OBJECT_ID": "1999-025YS", "EPOCH": "2025-12-21T06:14:38.935968", "MEAN_MOTION": 14.10481608, "ECCENTRICITY": 0.0028171, "INCLINATION": 98.7574, "RA_OF_ASC_NODE": 344.8506, "ARG_OF_PERICENTER": 212.2335, "MEAN_ANOMALY": 160.9939, "EPHEMERIS_TYPE": 0, "CLASSIFICATION_TYPE": "U", "NORAD_CAT_ID": 30281, "ELEMENT_SET_NO": 999, "REV_AT_EPOCH": 97341, "BSTAR": 0.00021095, "MEAN_MOTION_DOT": 3.34e-06, "MEAN_MOTION_DDOT": 0}, "tle": {"line1": "1 30281U 99025YS  25355.26017287  .00000334  00000+0  21095-3 0  9991", "line2": "2 30281  98.7574 344.8506 0028171 212.2335 160.9939 14.10481608973417"}}, "geometry": {"type": "Point", "coordinates": [-2.7249238165773253, -52.38281245329444]}}, {"type": "Feature", "properties": {"norad_id": 30282, "name": "FENGYUN 1C DEB", "group": "fengyun-1c-debris", "lat": 34.81107560027945, "lon": -175.07233360787217, "alt_km": 995.8842228583344, "timestamp": "2025-12-22T04:03:39.444286+00:00", "meta": {"OBJECT_NAME": "FENGYUN 1C DEB", "OBJECT_ID": "1999-025YT", "EPOCH": "2025-12-21T14:22:22.253088", "MEAN_MOTION": 14.1298762, "ECCENTRICITY": 0.0209811, "INCLINATION": 98.5015, "RA_OF_ASC_NODE": 358.4161, "ARG_OF_PERICENTER": 336.6834, "MEAN_ANOMALY": 147.9968, "EPHEMERIS_TYPE": 0, "CLASSIFICATION_TYPE": "U", "NORAD_CAT_ID": 30282, "ELEMENT_SET_NO": 999, "REV_AT_EPOCH": 97476, "BSTAR": 0.00028693, "MEAN_MOTION_DOT": 6.16e-06, "MEAN_MOTION_DDOT": 0}, "tle": {"line1": "1 30282U 99025YT  25355.59886867  .00000616  00000+0  28693-3 0  9990", "line2": "2 30282  98.5015 358.4161 0209811 336.6834 147.9968 14.12987620974764"}}, "geometry": {"type": "Point", "coordinates": [-175.07233360787217, 34.81107560027945]}}]}